STARLINK-30237
1 57437U 23105H   26090.83335647  .00239495  00000+0  12486-2 0  9997
2 57437  42.9905 101.1539 0019037 124.1586  67.3285 15.79187574  5969
